#dP2021  3  2  0  0  0.00000000      97 __u+U IGS14 FIT  IAC
## 2147 172800.00000000   900.00000000 59275 0.0000000000000
+  124   C01C02C03C04C05C06C07C08C09C10C11C12C13C14C16C19C20
+        C21C22C23C24C25C26C27C28C29C30C32C33C34C35C36C37C38
+        C39C40C41C42C43C44C45C46C60E01E02E03E04E05E07E08E09
+        E11E12E13E14E15E18E19E21E24E25E26E27E30E31E33E36G01
+        G02G03G04G05G06G07G08G09G10G11G12G13G14G15G16G17G18
+        G19G20G21G22G23G24G25G26G27G28G29G30G31G32J01J02J03
+        J07R01R02R03R04R05R07R08R09R11R12R13R14R15R16R17R18
+        R19R20R21R22R24  0  0  0  0  0  0  0  0  0  0  0  0
++        13 12 13 13 13  9  9  9  9  9  8  8  8  8  9  7  7
++         7  7  7  7  7  7  7  7  7  7  7  7  7  7  8  8  8
++         8  8  7  7  7  7  8  8  0  4  4  4  4  4  4  4  4
++         4  4  5  4  4  5  4  4  4  4  4  5  4  4  4  4  3
++         3  3  0  4  3  3  3  3  3  4  3  4  3  4  4  3  3
++         3  3  3  3  3  3  3  3  4  3  4  3  3  3 10  8  8
++        12  7  5  5  5  5  5  5  5  7  6  7  6  5  7  5  5
++         7  7  6  8  5  0  0  0  0  0  0  0  0  0  0  0  0
%c M  cc GPS ccc cccc cccc cccc cccc ccccc ccccc ccccc ccccc
%c cc cc ccc ccc cccc cccc cccc cccc ccccc ccccc ccccc ccccc
%f  1.2500000  1.025000000  0.00000000000  0.000000000000000
%f  0.0000000  0.000000000  0.00000000000  0.000000000000000
%i    0    0    0    0      0      0      0      0         0
%i    0    0    0    0      0      0      0      0         0
/* INFORMATION & ANALYSIS CENTER (IAC)            FINAL DATA
/* S/V CLOCKS ARE ALIGNED TO GNSS TIME                      
/* G:C1WC2W R:C1PC2P E:C1XC5X C:C2IC6I J:C1CC2S             
/* PCV:IGS14_2134 OL/AL:FES2004  NONE     YN ORB:CoN CLK:CoN
*  2021 03 02 17 45  0.00000000
PC01 -34333.730565  24426.631395   -286.672463   -692.412788
PC02   4330.330283  41963.362141   1151.459122    471.068145
PC03 -14854.363859  39458.186202   1002.635845 999999.999999
PC04 -39616.283027  14398.924778    113.110319 999999.999999
PC05  21870.817972  36062.476936    846.812123   -861.568379
PC06 -18631.794876  38056.092112   2480.969470    139.542327
PC07  -9406.317699  26853.268977 -30728.238935   -378.441033
PC08 -22616.390102  20402.236772  29090.476719   -905.877981
PC09  -9519.220833  39341.794663 -12279.287370    696.677007
PC10   4087.648588  33851.603585 -24321.725459    -77.961187
PC11  19170.434283 -17311.638242  10671.426615   -892.285804
PC12  17045.792887     41.373654  22135.653605    835.490409
PC13  -6348.205818  23427.359460  34545.541564    163.653836
PC14  13549.708749  -8387.374399 -22881.637144    301.623397
PC16 -15686.667717  39244.402730  -1277.648188   -717.282799
PC19  -6791.576193  17311.568182  20829.950964    747.069474
PC20 -17501.886932   -420.167860  21755.476833   -922.573171
PC21  18203.979789  18778.583649  -9685.648369   -864.240564
PC22   8135.634542  25528.931874   7756.372835   -900.022765
PC23  -4134.243892 -16122.043785  22395.861542   -876.156326
PC24  27694.776120  -1614.068645   3161.329875   -772.565180
PC25  15926.906539 -13331.672662  18640.287593   -952.100777
PC26  23083.544135   9106.142954 -12814.255054    941.073024
PC27 -12260.772866 -10215.972992 -22906.790497    492.047601
PC28   2547.023139 -23501.216921 -14827.496878   -103.214675
PC29 -14899.376718  23524.491771  -1898.775913    359.568220
PC30 -19428.389066   9240.314376 -17790.105742    449.213434
PC32 -18375.507704 -18635.322041   9714.350858   -903.938810
PC33   6741.971908 -17323.905507 -20808.845252   -952.328305
PC34  19517.878427  -9817.101123  17339.298958   -728.058511
PC35  -1959.538984  23740.059517  14566.306653   -393.368617
PC36 -16532.054620  12815.375993 -18450.812835   -747.437462
PC37 -22238.250053 -10089.968535  13496.069504   -870.763742
PC38 -19579.419041  23162.947218  29272.700854    133.328415
PC39 -12991.011850  40172.827955  -1188.225844     28.989188
PC40    939.873802  31404.303988 -28041.665689    136.898510
PC41  -8060.308472 -25494.581486  -7923.571699   -930.272956
PC42  17754.860914   1118.857407 -21451.912887   -907.905229
PC43  15254.826381 -23232.142244   2334.524907   -621.547656
PC44  12533.245045  10119.346733  22784.764187     65.546861
PC45   4291.944771  15989.181615 -22469.910395    376.152494
PC46 -27498.145872   2256.807011  -4038.539869    381.237389
PC60      0.000000      0.000000      0.000000 999999.999999
PE01  -9246.751228  13766.759328 -24520.844812  -1057.173699
PE02   9162.681417 -13810.585835  24520.170604    202.189740
PE03   8246.418915 -25268.385578 -13039.738451   -404.473861
PE04   4613.466656  28819.025147  -4933.719233   -720.672253
PE05  16464.421519  -6818.159861 -23633.149930   -300.279442
PE07 -14999.683651 -15420.079617  20341.500085   -507.638967
PE08  -4939.478357 -28715.447070   5250.495895   6039.165964
PE09  15005.187674  15172.616321 -20504.749862   5748.008993
PE11  18970.847512   5049.449639  22146.822206   6254.874412
PE12   -116.049550  18237.440674  23326.922854   5330.043814
PE13 -18663.656807  -5239.058272 -22362.047613    412.938959
PE14 -13003.152426 -20811.927097 -21169.364243  -1348.069865
PE15     37.777127 -18142.119993 -23373.831040    826.680185
PE18   7678.334517  17228.046471  14157.187569  -1473.907513
PE19  -9483.314126  23769.268194  14882.750683    216.907441
PE21 -24375.251244    -74.014310 -16791.445926   -651.382475
PE24  25551.724043  14888.369048  -1631.274160   -771.567491
PE25  24478.644576    236.201294  16650.063041   -527.560718
PE26 -26418.195317  11065.870515  -7466.064277   2087.776066
PE27 -25856.137328 -14360.821305    949.708249     18.836270
PE30 -11212.829256 -20172.955917  18508.678932   3138.981860
PE31  12144.794847  20113.461957 -18006.915404   -478.789908
PE33 -18684.150041  20356.485361  10644.054946   -466.160850
PE36  26344.433356 -10693.766288   8225.809440    433.587825
PG01   1264.923532 -15716.067937 -21558.375814    750.138313
PG02 -21171.299877  14847.133140   6785.309850   -582.182549
PG03  -8838.348571 -20434.477881 -14641.487023    -97.152605
PG04      0.000000      0.000000      0.000000 999999.999999
PG05  -8976.566687  12351.972219  21581.192906    -35.121010
PG06 -25389.900571   5195.042882  -5886.264493     -0.958963
PG07 -14544.008574 -10105.846047  20267.267770     76.700726
PG08   5134.856143 -25834.512423   1688.059860    -12.235527
PG09  -8116.395230 -19879.179931  15556.588860   -327.634030
PG10  22678.743288   9931.833514  -9859.905487    -72.649284
PG11   5196.120045 -22246.577250 -14295.541325     -9.989406
PG12   3785.548186  19994.187827 -17404.568870     -8.384531
PG13 -13174.870425  20959.869315   9313.940219    103.209309
PG14 -22140.479756 -11664.613241  -8929.870660     99.356111
PG15  -2111.768133  26249.380902    870.266256   -165.844509
PG16  11919.891358  -8966.610471  21757.802070   -287.986208
PG17 -14191.770440  -3118.018081 -21803.892814    403.034015
PG18  17025.996448   7860.586075  18827.629480    349.361108
PG19 -15969.480753   5592.833924 -20730.713164    -31.588819
PG20  21647.845220  15435.142939   2500.838966    524.447091
PG21   9568.906191 -17341.534432 -16747.751998     99.925185
PG22   -760.632360 -17915.097603 -19446.171652   -668.741712
PG23  20711.715235  16658.206061    385.413643    118.209549
PG24  -6073.623178  17897.203778 -18749.395095      1.625791
PG25  16491.386616  19924.691865  -6913.063236     90.979428
PG26  19544.169731  -1525.149414  17987.145713     52.435601
PG27  12181.508116 -19394.639938  12963.390638    -86.444280
PG28 -21259.185115 -10659.390854 -11065.925490    608.014565
PG29   6055.649798  20172.501148  16115.022291   -304.608646
PG30 -23503.067386  -1732.681485  12516.772754   -392.588433
PG31  25843.359466  -6435.851640  -3205.282809   -103.222407
PG32  15226.217091   1168.674977 -21625.371805     20.305534
PJ01 -24879.087712  25114.909841  27911.178809   -351.828926
PJ02 -28731.067938  14436.639435 -22780.230564      2.685167
PJ03 -25542.749607  32306.493568  -4371.638958     -1.252642
PJ07 -25362.263611  33695.665096     46.557443     -0.043848
PR01   4103.846807 -16162.080810 -19305.860078     75.798280
PR02  -7399.030376 -24347.549080  -1185.502608    469.107443
PR03 -12948.434745 -15786.699291  15298.532240     31.673522
PR04 -10905.232321   1434.397830  23042.072703     76.143197
PR05  -2920.862671  17937.433885  17921.978660     67.420104
PR07  12973.178731  15392.200412 -15657.477723    -42.522625
PR08  10984.902234  -1480.515312 -22919.458808    -57.682068
PR09   9060.938228  12036.759662 -20551.885899    -19.127774
PR11  23632.662833   -209.982471   9595.153952      2.677838
PR12  10322.109889  -8510.975829  21743.509274    209.294947
PR13  -8639.719642 -11779.406532  20887.432966    -51.474657
PR14 -22977.340078  -8220.747550   7445.453970     61.569352
PR15 -23495.377475     91.492747  -9909.320531    105.117893
PR16  -9048.611575   9262.602918 -21980.548680    -11.976639
PR17 -10433.229113  -3950.707325 -22923.626184    404.570092
PR18 -18247.151924  10650.994854 -14317.872753     68.420454
PR19 -17139.011204  18860.009663   1142.675236   -134.139278
PR20  -4510.879930  16804.959028  18685.206566    -44.326778
PR21  11184.775412   2874.137252  22750.804671   -191.498162
PR22  18416.127939 -11309.228921  13456.864639   -100.589668
PR24   3405.729133 -16753.707239 -18913.047023     33.491824
EOF
